2016/08/12 19:54
KPHL 121954Z 22013KT 10SM SCT043 BKN250 36/24 A2987 RMK AO2 SLP115 OCNL LTGCG DSNT NE AND DSNT W CB DSNT NE AND DSNT W MOV NE T03560239
