2016/08/13 03:59
TAF 
      AMD KSAW 130259Z 1303/1324 02007KT P6SM OVC012 
     FM130600 03003KT 3SM BR OVC002 
     FM130700 03003KT 1SM BR VCSH OVC003 
     FM131600 36003KT 6SM BR VCSH OVC005 
     FM131800 35005KT P6SM VCSH OVC008 
     FM132000 36006KT P6SM OVC013 
     FM132200 01006KT P6SM BKN026 
     FM132300 02006KT P6SM BKN035
